ONEWEB-0668             
1 56711U 23068B   26002.14757066  .00000096  00000+0  21657-3 0  9993
2 56711  87.9055 261.8187 0001265  95.8076 264.3199 13.16593178129930
ONEWEB-0676             
1 56712U 23068C   26002.07948363  .00000109  00000+0  25104-3 0  9994
2 56712  87.9041 261.8521 0001798  76.4506 283.6825 13.16596873129847
ONEWEB-0677             
1 56713U 23068D   26001.90057012 -.00000141  00000+0 -37859-3 0  9996
2 56713  87.9227 307.6015 0001843  82.1235 278.0107 13.20772302127853
ONEWEB-0678             
1 56714U 23068E   26001.74655868 -.00000106  00000+0 -31504-3 0  9994
2 56714  87.9015 292.4008 0001798  64.8414 295.2903 13.15547722127403
ONEWEB-0679             
1 56715U 23068F   26002.11432192 -.00000052  00000+0 -16924-3 0  9999
2 56715  87.9040 261.8278 0001739  94.7051 265.4279 13.16593427129877
ONEWEB-0680             
1 56716U 23068G   26001.79166516  .00000134  00000+0  29287-3 0  9992
2 56716  87.9230 277.1515 0001482  96.3160 263.8143 13.21827991129118
ONEWEB-0681             
1 56717U 23068H   26002.14958574  .00000080  00000+0  16211-3 0  9999
2 56717  87.9220 277.0941 0002639  80.6797 279.4635 13.21827605129152
ONEWEB-0682             
1 56718U 23068J   26001.77270536  .00000009  00000+0 -98715-5 0  9996
2 56718  87.9002 292.4081 0001569  93.0094 267.1216 13.15548658127570
