<?xml version="1.0" encoding="UTF-8"?>
<ndm xmlns:xsi="http://www.w3.org/2001/XMLSchema-instance" xsi:noNamespaceSchemaLocation="https://sanaregistry.org/r/ndmxml_unqualified/ndmxml-2.0.0-master-2.0.xsd">
<omm id="CCSDS_OMM_VERS" version="2.0">
<header><CREATION_DATE/><ORIGINATOR/></header><body><segment><metadata><OBJECT_NAME>ONEWEB-0668</OBJECT_NAME><OBJECT_ID>2023-068B</OBJECT_ID><CENTER_NAME>EARTH</CENTER_NAME><REF_FRAME>TEME</REF_FRAME><TIME_SYSTEM>UTC</TIME_SYSTEM><MEAN_ELEMENT_THEORY>SGP4</MEAN_ELEMENT_THEORY></metadata><data><meanElements><EPOCH>2026-01-02T03:32:30.105024</EPOCH><MEAN_MOTION>13.16593178</MEAN_MOTION><ECCENTRICITY>.0001265</ECCENTRICITY><INCLINATION>87.9055</INCLINATION><RA_OF_ASC_NODE>261.8187</RA_OF_ASC_NODE><ARG_OF_PERICENTER>95.8076</ARG_OF_PERICENTER><MEAN_ANOMALY>264.3199</MEAN_ANOMALY></meanElements><tleParameters><EPHEMERIS_TYPE>0</EPHEMERIS_TYPE><CLASSIFICATION_TYPE>U</CLASSIFICATION_TYPE><NORAD_CAT_ID>56711</NORAD_CAT_ID><ELEMENT_SET_NO>999</ELEMENT_SET_NO><REV_AT_EPOCH>12993</REV_AT_EPOCH><BSTAR>.21657E-3</BSTAR><MEAN_MOTION_DOT>.96E-6</MEAN_MOTION_DOT><MEAN_MOTION_DDOT>0</MEAN_MOTION_DDOT></tleParameters></data></segment></body></omm>
<omm id="CCSDS_OMM_VERS" version="2.0">
<header><CREATION_DATE/><ORIGINATOR/></header><body><segment><metadata><OBJECT_NAME>ONEWEB-0676</OBJECT_NAME><OBJECT_ID>2023-068C</OBJECT_ID><CENTER_NAME>EARTH</CENTER_NAME><REF_FRAME>TEME</REF_FRAME><TIME_SYSTEM>UTC</TIME_SYSTEM><MEAN_ELEMENT_THEORY>SGP4</MEAN_ELEMENT_THEORY></metadata><data><meanElements><EPOCH>2026-01-02T01:54:27.385632</EPOCH><MEAN_MOTION>13.16596873</MEAN_MOTION><ECCENTRICITY>.0001798</ECCENTRICITY><INCLINATION>87.9041</INCLINATION><RA_OF_ASC_NODE>261.8521</RA_OF_ASC_NODE><ARG_OF_PERICENTER>76.4506</ARG_OF_PERICENTER><MEAN_ANOMALY>283.6825</MEAN_ANOMALY></meanElements><tleParameters><EPHEMERIS_TYPE>0</EPHEMERIS_TYPE><CLASSIFICATION_TYPE>U</CLASSIFICATION_TYPE><NORAD_CAT_ID>56712</NORAD_CAT_ID><ELEMENT_SET_NO>999</ELEMENT_SET_NO><REV_AT_EPOCH>12984</REV_AT_EPOCH><BSTAR>.25104E-3</BSTAR><MEAN_MOTION_DOT>.109E-5</MEAN_MOTION_DOT><MEAN_MOTION_DDOT>0</MEAN_MOTION_DDOT></tleParameters></data></segment></body></omm>
<omm id="CCSDS_OMM_VERS" version="2.0">
<header><CREATION_DATE/><ORIGINATOR/></header><body><segment><metadata><OBJECT_NAME>ONEWEB-0677</OBJECT_NAME><OBJECT_ID>2023-068D</OBJECT_ID><CENTER_NAME>EARTH</CENTER_NAME><REF_FRAME>TEME</REF_FRAME><TIME_SYSTEM>UTC</TIME_SYSTEM><MEAN_ELEMENT_THEORY>SGP4</MEAN_ELEMENT_THEORY></metadata><data><meanElements><EPOCH>2026-01-01T21:36:49.258368</EPOCH><MEAN_MOTION>13.20772302</MEAN_MOTION><ECCENTRICITY>.0001843</ECCENTRICITY><INCLINATION>87.9227</INCLINATION><RA_OF_ASC_NODE>307.6015</RA_OF_ASC_NODE><ARG_OF_PERICENTER>82.1235</ARG_OF_PERICENTER><MEAN_ANOMALY>278.0107</MEAN_ANOMALY></meanElements><tleParameters><EPHEMERIS_TYPE>0</EPHEMERIS_TYPE><CLASSIFICATION_TYPE>U</CLASSIFICATION_TYPE><NORAD_CAT_ID>56713</NORAD_CAT_ID><ELEMENT_SET_NO>999</ELEMENT_SET_NO><REV_AT_EPOCH>12785</REV_AT_EPOCH><BSTAR>-.37859E-3</BSTAR><MEAN_MOTION_DOT>-.141E-5</MEAN_MOTION_DOT><MEAN_MOTION_DDOT>0</MEAN_MOTION_DDOT></tleParameters></data></segment></body></omm>
<omm id="CCSDS_OMM_VERS" version="2.0">
<header><CREATION_DATE/><ORIGINATOR/></header><body><segment><metadata><OBJECT_NAME>ONEWEB-0678</OBJECT_NAME><OBJECT_ID>2023-068E</OBJECT_ID><CENTER_NAME>EARTH</CENTER_NAME><REF_FRAME>TEME</REF_FRAME><TIME_SYSTEM>UTC</TIME_SYSTEM><MEAN_ELEMENT_THEORY>SGP4</MEAN_ELEMENT_THEORY></metadata><data><meanElements><EPOCH>2026-01-01T17:55:02.669952</EPOCH><MEAN_MOTION>13.15547722</MEAN_MOTION><ECCENTRICITY>.00017989</ECCENTRICITY><INCLINATION>87.9015</INCLINATION><RA_OF_ASC_NODE>292.4008</RA_OF_ASC_NODE><ARG_OF_PERICENTER>64.8414</ARG_OF_PERICENTER><MEAN_ANOMALY>295.2903</MEAN_ANOMALY></meanElements><tleParameters><EPHEMERIS_TYPE>0</EPHEMERIS_TYPE><CLASSIFICATION_TYPE>U</CLASSIFICATION_TYPE><NORAD_CAT_ID>56714</NORAD_CAT_ID><ELEMENT_SET_NO>999</ELEMENT_SET_NO><REV_AT_EPOCH>12740</REV_AT_EPOCH><BSTAR>-.31504488E-3</BSTAR><MEAN_MOTION_DOT>-.106E-5</MEAN_MOTION_DOT><MEAN_MOTION_DDOT>0</MEAN_MOTION_DDOT></tleParameters></data></segment></body></omm>
<omm id="CCSDS_OMM_VERS" version="2.0">
<header><CREATION_DATE/><ORIGINATOR/></header><body><segment><metadata><OBJECT_NAME>ONEWEB-0679</OBJECT_NAME><OBJECT_ID>2023-068F</OBJECT_ID><CENTER_NAME>EARTH</CENTER_NAME><REF_FRAME>TEME</REF_FRAME><TIME_SYSTEM>UTC</TIME_SYSTEM><MEAN_ELEMENT_THEORY>SGP4</MEAN_ELEMENT_THEORY></metadata><data><meanElements><EPOCH>2026-01-02T02:44:37.413888</EPOCH><MEAN_MOTION>13.16593427</MEAN_MOTION><ECCENTRICITY>.0001739</ECCENTRICITY><INCLINATION>87.9040</INCLINATION><RA_OF_ASC_NODE>261.8278</RA_OF_ASC_NODE><ARG_OF_PERICENTER>94.7051</ARG_OF_PERICENTER><MEAN_ANOMALY>265.4279</MEAN_ANOMALY></meanElements><tleParameters><EPHEMERIS_TYPE>0</EPHEMERIS_TYPE><CLASSIFICATION_TYPE>U</CLASSIFICATION_TYPE><NORAD_CAT_ID>56715</NORAD_CAT_ID><ELEMENT_SET_NO>999</ELEMENT_SET_NO><REV_AT_EPOCH>12987</REV_AT_EPOCH><BSTAR>-.16924E-3</BSTAR><MEAN_MOTION_DOT>-.52E-6</MEAN_MOTION_DOT><MEAN_MOTION_DDOT>0</MEAN_MOTION_DDOT></tleParameters></data></segment></body></omm>
<omm id="CCSDS_OMM_VERS" version="2.0">
<header><CREATION_DATE/><ORIGINATOR/></header><body><segment><metadata><OBJECT_NAME>ONEWEB-0680</OBJECT_NAME><OBJECT_ID>2023-068G</OBJECT_ID><CENTER_NAME>EARTH</CENTER_NAME><REF_FRAME>TEME</REF_FRAME><TIME_SYSTEM>UTC</TIME_SYSTEM><MEAN_ELEMENT_THEORY>SGP4</MEAN_ELEMENT_THEORY></metadata><data><meanElements><EPOCH>2026-01-01T18:59:59.869824</EPOCH><MEAN_MOTION>13.21827991</MEAN_MOTION><ECCENTRICITY>.0001482</ECCENTRICITY><INCLINATION>87.9230</INCLINATION><RA_OF_ASC_NODE>277.1515</RA_OF_ASC_NODE><ARG_OF_PERICENTER>96.3160</ARG_OF_PERICENTER><MEAN_ANOMALY>263.8143</MEAN_ANOMALY></meanElements><tleParameters><EPHEMERIS_TYPE>0</EPHEMERIS_TYPE><CLASSIFICATION_TYPE>U</CLASSIFICATION_TYPE><NORAD_CAT_ID>56716</NORAD_CAT_ID><ELEMENT_SET_NO>999</ELEMENT_SET_NO><REV_AT_EPOCH>12911</REV_AT_EPOCH><BSTAR>.29287E-3</BSTAR><MEAN_MOTION_DOT>.134E-5</MEAN_MOTION_DOT><MEAN_MOTION_DDOT>0</MEAN_MOTION_DDOT></tleParameters></data></segment></body></omm>
<omm id="CCSDS_OMM_VERS" version="2.0">
<header><CREATION_DATE/><ORIGINATOR/></header><body><segment><metadata><OBJECT_NAME>ONEWEB-0681</OBJECT_NAME><OBJECT_ID>2023-068H</OBJECT_ID><CENTER_NAME>EARTH</CENTER_NAME><REF_FRAME>TEME</REF_FRAME><TIME_SYSTEM>UTC</TIME_SYSTEM><MEAN_ELEMENT_THEORY>SGP4</MEAN_ELEMENT_THEORY></metadata><data><meanElements><EPOCH>2026-01-02T03:35:24.207936</EPOCH><MEAN_MOTION>13.21827605</MEAN_MOTION><ECCENTRICITY>.0002639</ECCENTRICITY><INCLINATION>87.9220</INCLINATION><RA_OF_ASC_NODE>277.0941</RA_OF_ASC_NODE><ARG_OF_PERICENTER>80.6797</ARG_OF_PERICENTER><MEAN_ANOMALY>279.4635</MEAN_ANOMALY></meanElements><tleParameters><EPHEMERIS_TYPE>0</EPHEMERIS_TYPE><CLASSIFICATION_TYPE>U</CLASSIFICATION_TYPE><NORAD_CAT_ID>56717</NORAD_CAT_ID><ELEMENT_SET_NO>999</ELEMENT_SET_NO><REV_AT_EPOCH>12915</REV_AT_EPOCH><BSTAR>.16211E-3</BSTAR><MEAN_MOTION_DOT>.8E-6</MEAN_MOTION_DOT><MEAN_MOTION_DDOT>0</MEAN_MOTION_DDOT></tleParameters></data></segment></body></omm>
<omm id="CCSDS_OMM_VERS" version="2.0">
<header><CREATION_DATE/><ORIGINATOR/></header><body><segment><metadata><OBJECT_NAME>ONEWEB-0682</OBJECT_NAME><OBJECT_ID>2023-068J</OBJECT_ID><CENTER_NAME>EARTH</CENTER_NAME><REF_FRAME>TEME</REF_FRAME><TIME_SYSTEM>UTC</TIME_SYSTEM><MEAN_ELEMENT_THEORY>SGP4</MEAN_ELEMENT_THEORY></metadata><data><meanElements><EPOCH>2026-01-01T18:32:41.743104</EPOCH><MEAN_MOTION>13.15548658</MEAN_MOTION><ECCENTRICITY>.00015692</ECCENTRICITY><INCLINATION>87.9002</INCLINATION><RA_OF_ASC_NODE>292.4081</RA_OF_ASC_NODE><ARG_OF_PERICENTER>93.0094</ARG_OF_PERICENTER><MEAN_ANOMALY>267.1216</MEAN_ANOMALY></meanElements><tleParameters><EPHEMERIS_TYPE>0</EPHEMERIS_TYPE><CLASSIFICATION_TYPE>U</CLASSIFICATION_TYPE><NORAD_CAT_ID>56718</NORAD_CAT_ID><ELEMENT_SET_NO>999</ELEMENT_SET_NO><REV_AT_EPOCH>12757</REV_AT_EPOCH><BSTAR>-.9871504E-5</BSTAR><MEAN_MOTION_DOT>.9E-7</MEAN_MOTION_DOT><MEAN_MOTION_DDOT>0</MEAN_MOTION_DDOT></tleParameters></data></segment></body></omm>

</ndm>
